{
  "descriptor": "NOAA GOES (via Celestrak)",
  "origin": "NOAA",
  "source": "Meroxa",
  "dataMode": "TEST",
  "satNo": 43226,
  "classificationMarking": "U",
  "epoch": "2022-08-02T00:00:00Z",
  "meanMotion": 1.0027121,
  "inclination": 0.0891,
  "raan": 262.1867,
  "eccentricity": 0.000024,
  "meanAnomaly": 274.9966,
  "meanMotionDot": 0,
  "meanMotionDDot": 0,
  "bStar": 0,
  "argOfPerigree": 203.0431,
  "revNo": 1622,
  "ephemType": 0,
  "line1": "1 43226U 18022A   22213.57605638  .00000103  00000+0  00000+0 0  9992",
  "line2": "2 43226   0.0891 262.1867 0000240 203.0431 274.9966  1.00271210 16226"
}